{"type": "FeatureCollection", "features": [ {"type": "Feature", "properties": {"norad_id": 31058, "name": "FENGYUN 1C DEB", "group": "fengyun-1c-debris", "lat": -24.478943169900386, "lon": 108.20432983255792, "alt_km": 646.0032317102296, "timestamp": "2025-12-09T20:37:09.567440+00:00", "meta": {"OBJECT_NAME": "FENGYUN 1C DEB", "OBJECT_ID": "1999-025BFC", "EPOCH": "2025-12-08T14:25:24.311712", "MEAN_MOTION": 14.76218072, "ECCENTRICITY": 0.0095083, "INCLINATION": 99.5657, "RA_OF_ASC_NODE": 291.1199, "ARG_OF_PERICENTER": 118.6638, "MEAN_ANOMALY": 242.4167, "EPHEMERIS_TYPE": 0, "CLASSIFICATION_TYPE": "U", "NORAD_CAT_ID": 31058, "ELEMENT_SET_NO": 999, "REV_AT_EPOCH": 99488, "BSTAR": 0.0015712, "MEAN_MOTION_DOT": 0.00011654, "MEAN_MOTION_DDOT": 0}, "tle": {"line1": "1 31058U 99025BFC 25342.60097583  .00011654  00000+0  15712-2 0  9990", "line2": "2 31058  99.5657 291.1199 0095083 118.6638 242.4167 14.76218072994882"}}, "geometry": {"type": "Point", "coordinates": [108.20432983255792, -24.478943169900386]}}, {"type": "Feature", "properties": {"norad_id": 31062, "name": "FENGYUN 1C DEB", "group": "fengyun-1c-debris", "lat": -24.660471064285574, "lon": 170.57650758390307, "alt_km": 859.9837326008455, "timestamp": "2025-12-09T20:37:09.567450+00:00", "meta": {"OBJECT_NAME": "FENGYUN 1C DEB", "OBJECT_ID": "1999-025BFG", "EPOCH": "2025-12-08T18:38:34.024416", "MEAN_MOTION": 13.75688586, "ECCENTRICITY": 0.01717436, "INCLINATION": 98.9968, "RA_OF_ASC_NODE": 165.3833, "ARG_OF_PERICENTER": 328.4179, "MEAN_ANOMALY": 48.9055, "EPHEMERIS_TYPE": 0, "CLASSIFICATION_TYPE": "U", "NORAD_CAT_ID": 31062, "ELEMENT_SET_NO": 999, "REV_AT_EPOCH": 94179, "BSTAR": 0.00045821902, "MEAN_MOTION_DOT": 4.51e-06, "MEAN_MOTION_DDOT": 0}, "tle": {"line1": "1 31062U 99025BFG 25342.77678269  .00000451  00000+0  45822-3 0  9998", "line2": "2 31062  98.9968 165.3833 0171743 328.4179  48.9055 13.75688586941797"}}, "geometry": {"type": "Point", "coordinates": [170.57650758390307, -24.660471064285574]}}, {"type": "Feature", "properties": {"norad_id": 31064, "name": "FENGYUN 1C DEB", "group": "fengyun-1c-debris", "lat": 6.118664146157984, "lon": -34.30550791990636, "alt_km": 646.5776992420269, "timestamp": "2025-12-09T20:37:09.567460+00:00", "meta": {"OBJECT_NAME": "FENGYUN 1C DEB", "OBJECT_ID": "1999-025BFJ", "EPOCH": "2025-12-08T16:43:11.100864", "MEAN_MOTION": 14.22122105, "ECCENTRICITY": 0.02417838, "INCLINATION": 98.5734, "RA_OF_ASC_NODE": 325.4897, "ARG_OF_PERICENTER": 13.3545, "MEAN_ANOMALY": 165.0024, "EPHEMERIS_TYPE": 0, "CLASSIFICATION_TYPE": "U", "NORAD_CAT_ID": 31064, "ELEMENT_SET_NO": 999, "REV_AT_EPOCH": 97197, "BSTAR": 0.00072233563, "MEAN_MOTION_DOT": 2.109e-05, "MEAN_MOTION_DDOT": 0}, "tle": {"line1": "1 31064U 99025BFJ 25342.69665626  .00002109  00000+0  72234-3 0  9993", "line2": "2 31064  98.5734 325.4897 0241783  13.3545 165.0024 14.22122105971977"}}, "geometry": {"type": "Point", "coordinates": [-34.30550791990636, 6.118664146157984]}}, {"type": "Feature", "properties": {"norad_id": 31065, "name": "FENGYUN 1C DEB", "group": "fengyun-1c-debris", "lat": -53.09752757468016, "lon": 171.6123757695878, "alt_km": 829.4481210200538, "timestamp": "2025-12-09T20:37:09.567470+00:00", "meta": {"OBJECT_NAME": "FENGYUN 1C DEB", "OBJECT_ID": "1999-025BFK", "EPOCH": "2025-12-09T07:45:29.356416", "MEAN_MOTION": 14.28152843, "ECCENTRICITY": 0.0035315, "INCLINATION": 98.4676, "RA_OF_ASC_NODE": 2.5355, "ARG_OF_PERICENTER": 41.4616, "MEAN_ANOMALY": 318.9236, "EPHEMERIS_TYPE": 0, "CLASSIFICATION_TYPE": "U", "NORAD_CAT_ID": 31065, "ELEMENT_SET_NO": 999, "REV_AT_EPOCH": 64529, "BSTAR": 0.0013985, "MEAN_MOTION_DOT": 3.462e-05, "MEAN_MOTION_DDOT": 0}, "tle": {"line1": "1 31065U 99025BFK 25343.32325644  .00003462  00000+0  13985-2 0  9998", "line2": "2 31065  98.4676   2.5355 0035315  41.4616 318.9236 14.28152843645292"}}, "geometry": {"type": "Point", "coordinates": [171.6123757695878, -53.09752757468016]}}, {"type": "Feature", "properties": {"norad_id": 31068, "name": "FENGYUN 1C DEB", "group": "fengyun-1c-debris", "lat": 68.63111160919837, "lon": 168.98502641264417, "alt_km": 740.4850644832013, "timestamp": "2025-12-09T20:37:09.567481+00:00", "meta": {"OBJECT_NAME": "FENGYUN 1C DEB", "OBJECT_ID": "1999-025BFN", "EPOCH": "2025-12-08T16:50:26.088576", "MEAN_MOTION": 14.0918717, "ECCENTRICITY": 0.01655633, "INCLINATION": 98.6287, "RA_OF_ASC_NODE": 325.0408, "ARG_OF_PERICENTER": 129.6248, "MEAN_ANOMALY": 231.9669, "EPHEMERIS_TYPE": 0, "CLASSIFICATION_TYPE": "U", "NORAD_CAT_ID": 31068, "ELEMENT_SET_NO": 999, "REV_AT_EPOCH": 96298, "BSTAR": 0.00020953749, "MEAN_MOTION_DOT": 3.73e-06, "MEAN_MOTION_DDOT": 0}, "tle": {"line1": "1 31068U 99025BFN 25342.70169084  .00000373  00000+0  20954-3 0  9999", "line2": "2 31068  98.6287 325.0408 0165563 129.6248 231.9669 14.09187170962988"}}, "geometry": {"type": "Point", "coordinates": [168.98502641264417, 68.63111160919837]}}, {"type": "Feature", "properties": {"norad_id": 31069, "name": "FENGYUN 1C DEB", "group": "fengyun-1c-debris", "lat": -33.90782174262926, "lon": 150.06367499636724, "alt_km": 745.6793767337476, "timestamp": "2025-12-09T20:37:09.567491+00:00", "meta": {"OBJECT_NAME": "FENGYUN 1C DEB", "OBJECT_ID": "1999-025BFP", "EPOCH": "2025-12-07T04:30:06.594048", "MEAN_MOTION": 14.57048672, "ECCENTRICITY": 0.01047006, "INCLINATION": 99.0995, "RA_OF_ASC_NODE": 140.963, "ARG_OF_PERICENTER": 94.1529, "MEAN_ANOMALY": 267.1641, "EPHEMERIS_TYPE": 0, "CLASSIFICATION_TYPE": "U", "NORAD_CAT_ID": 31069, "ELEMENT_SET_NO": 999, "REV_AT_EPOCH": 98605, "BSTAR": 0.0012606764, "MEAN_MOTION_DOT": 6.061e-05, "MEAN_MOTION_DDOT": 0}, "tle": {"line1": "1 31069U 99025BFP 25341.18757632  .00006061  00000+0  12607-2 0  9998", "line2": "2 31069  99.0995 140.9630 0104700  94.1529 267.1641 14.57048672986056"}}, "geometry": {"type": "Point", "coordinates": [150.06367499636724, -33.90782174262926]}}, {"type": "Feature", "properties": {"norad_id": 31071, "name": "FENGYUN 1C DEB", "group": "fengyun-1c-debris", "lat": 68.01842339529993, "lon": -95.38366871675147, "alt_km": 750.0017614520275, "timestamp": "2025-12-09T20:37:09.567501+00:00", "meta": {"OBJECT_NAME": "FENGYUN 1C DEB", "OBJECT_ID": "1999-025BFR", "EPOCH": "2025-12-08T22:37:13.190592", "MEAN_MOTION": 14.52575216, "ECCENTRICITY": 0.005558, "INCLINATION": 99.0415, "RA_OF_ASC_NODE": 60.396, "ARG_OF_PERICENTER": 293.3951, "MEAN_ANOMALY": 66.1403, "EPHEMERIS_TYPE": 0, "CLASSIFICATION_TYPE": "U", "NORAD_CAT_ID": 31071, "ELEMENT_SET_NO": 999, "REV_AT_EPOCH": 65439, "BSTAR": 0.0013268, "MEAN_MOTION_DOT": 5.486e-05, "MEAN_MOTION_DDOT": 0}, "tle": {"line1": "1 31071U 99025BFR 25342.94251378  .00005486  00000+0  13268-2 0  9996", "line2": "2 31071  99.0415  60.3960 0055580 293.3951  66.1403 14.52575216654396"}}, "geometry": {"type": "Point", "coordinates": [-95.38366871675147, 68.01842339529993]}}, {"type": "Feature", "properties": {"norad_id": 31072, "name": "FENGYUN 1C DEB", "group": "fengyun-1c-debris", "lat": -71.86257596392116, "lon": 138.92241959246235, "alt_km": 942.1311067045399, "timestamp": "2025-12-09T20:37:09.567511+00:00", "meta": {"OBJECT_NAME": "FENGYUN 1C DEB", "OBJECT_ID": "1999-025BFS", "EPOCH": "2025-12-09T11:01:24.746880", "MEAN_MOTION": 14.25467306, "ECCENTRICITY": 0.0210476, "INCLINATION": 99.3329, "RA_OF_ASC_NODE": 348.6312, "ARG_OF_PERICENTER": 107.0705, "MEAN_ANOMALY": 255.3645, "EPHEMERIS_TYPE": 0, "CLASSIFICATION_TYPE": "U", "NORAD_CAT_ID": 31072, "ELEMENT_SET_NO": 999, "REV_AT_EPOCH": 96596, "BSTAR": 0.00087952636, "MEAN_MOTION_DOT": 2.568e-05, "MEAN_MOTION_DDOT": 0}, "tle": {"line1": "1 31072U 99025BFS 25343.45931420  .00002568  00000+0  87953-3 0  9998", "line2": "2 31072  99.3329 348.6312 0210476 107.0705 255.3645 14.25467306965960"}}, "geometry": {"type": "Point", "coordinates": [138.92241959246235, -71.86257596392116]}}, {"type": "Feature", "properties": {"norad_id": 31073, "name": "FENGYUN 1C DEB", "group": "fengyun-1c-debris", "lat": -71.9259162280764, "lon": -16.438925257387837, "alt_km": 791.1653842950573, "timestamp": "2025-12-09T20:37:09.567521+00:00", "meta": {"OBJECT_NAME": "FENGYUN 1C DEB", "OBJECT_ID": "1999-025BFT", "EPOCH": "2025-12-09T09:18:45.997632", "MEAN_MOTION": 14.24769317, "ECCENTRICITY": 0.00455685, "INCLINATION": 99.2196, "RA_OF_ASC_NODE": 192.9137, "ARG_OF_PERICENTER": 295.1818, "MEAN_ANOMALY": 64.4638, "EPHEMERIS_TYPE": 0, "CLASSIFICATION_TYPE": "U", "NORAD_CAT_ID": 31073, "ELEMENT_SET_NO": 999, "REV_AT_EPOCH": 97035, "BSTAR": 0.001957229, "MEAN_MOTION_DOT": 4.564e-05, "MEAN_MOTION_DDOT": 0}, "tle": {"line1": "1 31073U 99025BFT 25343.38803238  .00004564  00000+0  19572-2 0  9995", "line2": "2 31073  99.2196 192.9137 0045568 295.1818  64.4638 14.24769317970355"}}, "geometry": {"type": "Point", "coordinates": [-16.438925257387837, -71.9259162280764]}}, {"type": "Feature", "properties": {"norad_id": 31074, "name": "FENGYUN 1C DEB", "group": "fengyun-1c-debris", "lat": -64.02870511136588, "lon": -82.25951476225708, "alt_km": 792.1706077029667, "timestamp": "2025-12-09T20:37:09.567532+00:00", "meta": {"OBJECT_NAME": "FENGYUN 1C DEB", "OBJECT_ID": "1999-025BFU", "EPOCH": "2025-12-08T05:52:14.706624", "MEAN_MOTION": 14.14172356, "ECCENTRICITY": 0.00887016, "INCLINATION": 98.9582, "RA_OF_ASC_NODE": 257.228, "ARG_OF_PERICENTER": 278.5236, "MEAN_ANOMALY": 80.5892, "EPHEMERIS_TYPE": 0, "CLASSIFICATION_TYPE": "U", "NORAD_CAT_ID": 31074, "ELEMENT_SET_NO": 999, "REV_AT_EPOCH": 95516, "BSTAR": 0.0032893959, "MEAN_MOTION_DOT": 6.469e-05, "MEAN_MOTION_DDOT": 0}, "tle": {"line1": "1 31074U 99025BFU 25342.24461466  .00006469  00000+0  32894-2 0  9991", "line2": "2 31074  98.9582 257.2280 0088701 278.5236  80.5892 14.14172356955163"}}, "geometry": {"type": "Point", "coordinates": [-82.25951476225708, -64.02870511136588]}}]}